[{"OBJECT_NAME":"STARLINK-34620","OBJECT_ID":"2025-150P","EPOCH":"2026-03-09T13:29:21.659136","MEAN_MOTION":14.98350238,"ECCENTRICITY":0.0003773,"INCLINATION":70.0012,"RA_OF_ASC_NODE":134.9355,"ARG_OF_PERICENTER":270.7588,"MEAN_ANOMALY":89.3139,"EPHEMERIS_TYPE":0,"CLASSIFICATION_TYPE":"U","NORAD_CAT_ID":64803,"ELEMENT_SET_NO":999,"REV_AT_EPOCH":3649,"BSTAR":0.00055824,"MEAN_MOTION_DOT":6.578e-5,"MEAN_MOTION_DDOT":0},{"OBJECT_NAME":"COSMOS 886 DEB","OBJECT_ID":"1976-126AF","EPOCH":"2026-03-09T23:31:01.873920","MEAN_MOTION":14.3102807,"ECCENTRICITY":0.04259179,"INCLINATION":65.888,"RA_OF_ASC_NODE":14.8915,"ARG_OF_PERICENTER":257.6926,"MEAN_ANOMALY":97.6185,"EPHEMERIS_TYPE":0,"CLASSIFICATION_TYPE":"U","NORAD_CAT_ID":9819,"ELEMENT_SET_NO":999,"REV_AT_EPOCH":42137,"BSTAR":0.0011909255,"MEAN_MOTION_DOT":8.527e-5,"MEAN_MOTION_DDOT":0}]
